{"fetched_at":"2026-03-29T16:36:15Z","count":15609,"tles":[{"name":"STARLINK-31257","line1":"1 59079U 24041F   26087.72008421  .00005462  00000+0  20784-3 0  9998","line2":"2 59079  43.0019 203.0869 0001178 280.4959  79.5760 15.27584744117180","category":"Starlink"}]}